{
  "norad_id": 55746,
  "name": "STARLINK-5579",
  "history": [
    {
      "epoch": "2026-03-28T17:36:32.406624",
      "apogee_km": 574.1164062409371,
      "perigee_km": 569.9878548935976,
      "latitude_deg": -0.5399404182879218,
      "longitude_deg": -174.96399263991043,
      "semi_major_axis_km": 6950.189130567267,
      "eccentricity": 0.00029701,
      "inclination_deg": 70.0011,
      "raan_deg": 196.4043,
      "arg_perigee_deg": 269.0088,
      "mean_anomaly_deg": 91.0731,
      "mean_motion_rev_day": 14.98331216
    }
  ]
}