{"fetched_at":"2026-03-29T16:36:15Z","count":15609,"tles":[{"name":"STARLINK-5579","line1":"1 55746U 23028F   26087.73370841 -.00000066  00000+0  22737-5 0  9996","line2":"2 55746  70.0011 196.4043 0002970 269.0088  91.0731 14.98331216168897","category":"Starlink"}]}